VDNH-80                 
1 44392U 19038G   21229.87612368  .00001027  00000-0  60154-4 0  9990
2 44392  97.5920 194.2830 0022625  99.9417 312.5369 15.13868126116883
D-STAR ONE (LIGHTSAT)   
1 44393U 19038H   21229.86787828  .00001202  00000-0  69992-4 0  9998
2 44393  97.5929 194.1474 0023103 100.0922 260.2917 15.13767468117070
AMGU-1 (AMURSAT)        
1 44394U 19038J   21229.94986354  .00001347  00000-0  77942-4 0  9997
2 44394  97.5915 194.1727 0023038 100.0581 260.3256 15.13775801117083
DOT-1                   
1 44399U 19038P   21229.88009384  .00000767  00000-0  47182-4 0  9992
2 44399  97.5952 193.5043 0025947 103.7065 256.7057 15.12787845117023
SOKRAT                  
1 44404U 19038U   21229.84414752  .00001273  00000-0  74242-4 0  9994
2 44404  97.5920 193.8275 0023370 101.8141 258.5713 15.13597942117057
LUCKY-7                 
1 44406U 19038W   21229.89018659  .00000879  00000-0  53108-4 0  9996
2 44406  97.5945 193.7474 0025835  96.7954 263.6217 15.13077831117032
D-STAR ONE (EXOCONNECT) 
1 44410U 19038AA  21229.90549439  .00001973  00000-0  11038-3 0  9999
2 44410  97.5891 194.2160 0023060  99.2083 261.1758 15.14446440117090
NARSSCUBE-2             
1 44415U 19022E   21229.77732499  .00001375  00000-0  56890-4 0  9994
2 44415  51.6432 142.9332 0011758  46.7566 313.4395 15.31261447113547
KRAKSAT                 
1 44427U 98067QM  21229.85024395  .00027917  00000-0  22551-3 0  9997
2 44427  51.6396 347.5447 0002198  88.9782   1.9514 15.70617753121117
ENTRYSAT                
1 44429U 98067QP  21222.50999637  .13114982  12639-4  26452-3 0  9996
2 44429  51.6073 351.2662 0008582 295.0172  64.9966 16.46454560120409
NARSSCUBE-1             
1 44792U 98067QX  21229.75132351  .00037425  00000-0  30044-3 0  9994
2 44792  51.6358 359.0018 0001909 171.5022 188.6009 15.70611558 99187
DUCHIFAT-3              
1 44854U 19089C   21229.72041252  .00000424  00000-0  40185-4 0  9993
2 44854  36.9659  98.2929 0009693 276.8262  83.1388 14.99575012 92302
OPS-SAT                 
1 44878U 19092F   21229.87986391  .00001227  00000-0  66020-4 0  9999
2 44878  97.4769  52.4886 0012655 322.3928  37.6419 15.16687922 92149
FLORIPASAT-1            
1 44885U 19093G   21229.71322279  .00000257  00000-0  38793-4 0  9998
2 44885  97.9243 308.5477 0016115 101.4744 258.8285 14.82349468 89840
HUSKYSAT-1 (HO-107)     
1 45119U 19071J   21229.70470482  .00003071  00000-0  96413-4 0  9994
2 45119  51.6418  99.7988 0011597 148.9594 211.2077 15.36209651 86585
G-SAT                   
1 45597U 98067RK  21229.82878316  .00013470  00000-0  17197-3 0  9992
2 45597  51.6404  20.6224 0003483 199.5998 160.4862 15.59597655 74180
QUETZAL-1               
1 45598U 98067RL  21229.77418532  .00022159  00000-0  25296-3 0  9990
2 45598  51.6398  18.7525 0001559 237.1702 122.9142 15.62120941 74132
BY70-2                  
1 45857U 20042B   21229.74701935  .00000938  00000-0  13974-3 0  9996
2 45857  97.9827 304.8603 0011145  25.9200 334.2561 14.77192472 60595
SALSAT                  
1 46495U 20068K   21229.88989315  .00000418  00000-0  35130-4 0  9990
2 46495  97.6956 167.0303 0015811 220.0600 139.9458 15.03522844 48564
NETSAT-4                
1 46504U 20068U   21229.78422578  .00000492  00000-0  41959-4 0  9991
2 46504  97.6864 166.1325 0012690 278.1196  81.8629 15.02159567 48442
NETSAT-3                
1 46505U 20068V   21229.79243334 -.00000378  00000-0 -24120-4 0  9990
2 46505  97.6876 166.1100 0010644 292.8265  67.1845 15.02125036 48456
NETSAT-1                
1 46506U 20068W   21229.80027672 -.00000060  00000-0  28600-7 0  9995
2 46506  97.6894 166.0876 0007620 311.9943  48.0629 15.02106535 48453
NETSAT-2                
1 46507U 20068X   21229.47180478 -.00000059  00000-0  15342-6 0  9999
2 46507  97.6947 165.7592 0006309 326.6460  33.4357 15.02086843 48358
BY70-3                  
1 46839U 20079N   21229.84290597  .00002723  00000-0  84812-4 0  9999
2 46839  97.2362 302.4864 0006648 359.9369 138.0237 15.34105944 43610
SPOC                    
1 46921U 98067RR  21229.70500229  .00009635  00000-0  14484-3 0  9990
2 46921  51.6424  30.3177 0001567 311.6807  48.4050 15.55572296 44390
BOBCAT-1                
1 46922U 98067RS  21229.70560287  .00015418  00000-0  20889-3 0  9993
2 46922  51.6428  28.0985 0001479 317.8890  42.1989 15.57880532 44386
NEUTRON-1               
1 46923U 98067RT  21229.72558628  .00009930  00000-0  14975-3 0  9993
2 46923  51.6423  30.4518 0001581 329.9255  30.1645 15.55445079 44426
1998-067RU              
1 46924U 98067RU  21229.81595599  .00034848  00000-0  37421-3 0  9999
2 46924  51.6391  22.7831 0001672 342.1846  17.9090 15.63433260 44501
DESCENT                 
1 46927U 98067RX  21229.85950134  .00010277  00000-0  15471-3 0  9997
2 46927  51.6422  29.8427 0001841 354.2001   5.8968 15.55449525 44358
UVSQ-SAT                
1 47438U 21006AB  21229.61472327  .00000805  00000-0  48886-4 0  9994
2 47438  97.4829 289.7341 0011260 243.3592 116.6486 15.13276076 31306
SOMP2B                  
1 47445U 21006AJ  21229.90018758  .00000817  00000-0  49778-4 0  9992
2 47445  97.4801 289.8896 0010839 246.5466 113.4626 15.13110518 31349
WARP-01                 
1 47924U 98067SA  21229.45412468  .00012103  00000-0  19553-3 0  9999
2 47924  51.6423  36.8636 0004349 335.2354  24.8427 15.53294583 24273
RSP-01                  
1 47925U 98067SB  21229.78852933  .00010897  00000-0  17974-3 0  9994
2 47925  51.6430  35.3567 0001718 260.1871  99.8925 15.52835913 24302
TAUSAT-1                
1 47926U 98067SC  21229.73314931  .00010696  00000-0  17147-3 0  9990
2 47926  51.6421  34.9838 0002799 259.8006 100.2669 15.53654564 24296
TSURU                   
1 47927U 98067SD  21229.73738260  .00009762  00000-0  16348-3 0  9990
2 47927  51.6432  35.7648 0001714 256.7491 103.3308 15.52547750 24298
STARS-EC                
1 47928U 98067SE  21229.46168749  .00013171  00000-0  21256-3 0  9993
2 47928  51.6426  36.9160 0004993 338.7135  21.3647 15.53230307 24239
MAYA-2                  
1 47929U 98067SF  21229.73428997  .00009821  00000-0  16427-3 0  9999
2 47929  51.6431  35.7440 0001799 252.9452 107.1341 15.52574277 24256
HIROGARI (OPUSAT-II)    
1 47930U 98067SG  21229.75136239  .00014087  00000-0  22288-3 0  9990
2 47930  51.6428  35.1107 0001864 248.2334 111.8458 15.53722191 24306
GUARANISAT-1            
1 47931U 98067SH  21229.86163388  .00009811  00000-0  16399-3 0  9993
2 47931  51.6432  35.0962 0001844 252.9055 107.1734 15.52593784 24319
DIY-1 (ARDUIQUBE)       
1 47963U 21022AH  21229.49914592  .00001687  00000-0  11466-3 0  9998
2 47963  97.5523 130.7466 0021350  94.8063 265.5603 15.07525496 21093
